ORBCOMM FM33 [-]        
1 25983U 99065D   23365.40849744  .00001477  00000+0  53930-3 0  9996
2 25983  45.0311  10.6380 0010557 263.2287 237.0709 14.37141171259205
ORBCOMM FM36 [-]        
1 25984U 99065E   23365.36566616  .00001487  00000+0  56631-3 0  9998
2 25984  45.0399  94.0815 0003807 167.4325 192.6618 14.35008405257662
ORBCOMM FM35 [+]        
1 25985U 99065F   23365.30396759  .00001368  00000+0  52873-3 0  9994
2 25985  45.0403  96.6474 0004630 241.3025 118.7357 14.34669468258056
ORBCOMM FM34 [-]        
1 25986U 99065G   23365.34030533  .00001323  00000+0  51323-3 0  9994
2 25986  45.0397  96.9751 0004976 200.7664 159.2982 14.34623941258174
ORBCOMM FM38 [-]        
1 33060U 08031A   23365.93941816  .00002099  00000+0  32616-3 0  9994
2 33060  48.4429 326.8500 0005817 278.2668  81.7586 14.76672057835825
ORBCOMM FM41 [-]        
1 33061U 08031B   23365.31174660  .00002098  00000+0  32797-3 0  9991
2 33061  48.4462 336.1394 0004955 262.6247 239.7282 14.76415142835233
ORBCOMM FM29 [-]        
1 33062U 08031C   23365.36231795  .00002278  00000+0  35438-3 0  9995
2 33062  48.4414 343.9110 0006825 260.3634 252.4980 14.76310985835153
ORBCOMM FM39 [-]        
1 33063U 08031D   23365.21547216  .00001962  00000+0  31555-3 0  9993
2 33063  48.4424   4.1879 0007660 237.3617 122.6557 14.75417815834848
