<?xml version="1.0" encoding="UTF-8"?>
<ndm xmlns:xsi="http://www.w3.org/2001/XMLSchema-instance" xsi:noNamespaceSchemaLocation="https://sanaregistry.org/r/ndmxml_unqualified/ndmxml-2.0.0-master-2.0.xsd">
<omm id="CCSDS_OMM_VERS" version="2.0">
<header><CREATION_DATE/><ORIGINATOR/></header><body><segment><metadata><OBJECT_NAME>ORBCOMM FM33 [-]</OBJECT_NAME><OBJECT_ID>1999-065D</OBJECT_ID><CENTER_NAME>EARTH</CENTER_NAME><REF_FRAME>TEME</REF_FRAME><TIME_SYSTEM>UTC</TIME_SYSTEM><MEAN_ELEMENT_THEORY>SGP4</MEAN_ELEMENT_THEORY></metadata><data><meanElements><EPOCH>2023-12-31T09:48:14.178816</EPOCH><MEAN_MOTION>14.37141171</MEAN_MOTION><ECCENTRICITY>.0010557</ECCENTRICITY><INCLINATION>45.0311</INCLINATION><RA_OF_ASC_NODE>10.6380</RA_OF_ASC_NODE><ARG_OF_PERICENTER>263.2287</ARG_OF_PERICENTER><MEAN_ANOMALY>237.0709</MEAN_ANOMALY></meanElements><tleParameters><EPHEMERIS_TYPE>0</EPHEMERIS_TYPE><CLASSIFICATION_TYPE>U</CLASSIFICATION_TYPE><NORAD_CAT_ID>25983</NORAD_CAT_ID><ELEMENT_SET_NO>999</ELEMENT_SET_NO><REV_AT_EPOCH>25920</REV_AT_EPOCH><BSTAR>.5393E-3</BSTAR><MEAN_MOTION_DOT>.1477E-4</MEAN_MOTION_DOT><MEAN_MOTION_DDOT>0</MEAN_MOTION_DDOT></tleParameters></data></segment></body></omm>
<omm id="CCSDS_OMM_VERS" version="2.0">
<header><CREATION_DATE/><ORIGINATOR/></header><body><segment><metadata><OBJECT_NAME>ORBCOMM FM36 [-]</OBJECT_NAME><OBJECT_ID>1999-065E</OBJECT_ID><CENTER_NAME>EARTH</CENTER_NAME><REF_FRAME>TEME</REF_FRAME><TIME_SYSTEM>UTC</TIME_SYSTEM><MEAN_ELEMENT_THEORY>SGP4</MEAN_ELEMENT_THEORY></metadata><data><meanElements><EPOCH>2023-12-31T08:46:33.556224</EPOCH><MEAN_MOTION>14.35008405</MEAN_MOTION><ECCENTRICITY>.0003807</ECCENTRICITY><INCLINATION>45.0399</INCLINATION><RA_OF_ASC_NODE>94.0815</RA_OF_ASC_NODE><ARG_OF_PERICENTER>167.4325</ARG_OF_PERICENTER><MEAN_ANOMALY>192.6618</MEAN_ANOMALY></meanElements><tleParameters><EPHEMERIS_TYPE>0</EPHEMERIS_TYPE><CLASSIFICATION_TYPE>U</CLASSIFICATION_TYPE><NORAD_CAT_ID>25984</NORAD_CAT_ID><ELEMENT_SET_NO>999</ELEMENT_SET_NO><REV_AT_EPOCH>25766</REV_AT_EPOCH><BSTAR>.56631E-3</BSTAR><MEAN_MOTION_DOT>.1487E-4</MEAN_MOTION_DOT><MEAN_MOTION_DDOT>0</MEAN_MOTION_DDOT></tleParameters></data></segment></body></omm>
<omm id="CCSDS_OMM_VERS" version="2.0">
<header><CREATION_DATE/><ORIGINATOR/></header><body><segment><metadata><OBJECT_NAME>ORBCOMM FM35 [+]</OBJECT_NAME><OBJECT_ID>1999-065F</OBJECT_ID><CENTER_NAME>EARTH</CENTER_NAME><REF_FRAME>TEME</REF_FRAME><TIME_SYSTEM>UTC</TIME_SYSTEM><MEAN_ELEMENT_THEORY>SGP4</MEAN_ELEMENT_THEORY></metadata><data><meanElements><EPOCH>2023-12-31T07:17:42.799776</EPOCH><MEAN_MOTION>14.34669468</MEAN_MOTION><ECCENTRICITY>.000463</ECCENTRICITY><INCLINATION>45.0403</INCLINATION><RA_OF_ASC_NODE>96.6474</RA_OF_ASC_NODE><ARG_OF_PERICENTER>241.3025</ARG_OF_PERICENTER><MEAN_ANOMALY>118.7357</MEAN_ANOMALY></meanElements><tleParameters><EPHEMERIS_TYPE>0</EPHEMERIS_TYPE><CLASSIFICATION_TYPE>U</CLASSIFICATION_TYPE><NORAD_CAT_ID>25985</NORAD_CAT_ID><ELEMENT_SET_NO>999</ELEMENT_SET_NO><REV_AT_EPOCH>25805</REV_AT_EPOCH><BSTAR>.52873E-3</BSTAR><MEAN_MOTION_DOT>.1368E-4</MEAN_MOTION_DOT><MEAN_MOTION_DDOT>0</MEAN_MOTION_DDOT></tleParameters></data></segment></body></omm>
<omm id="CCSDS_OMM_VERS" version="2.0">
<header><CREATION_DATE/><ORIGINATOR/></header><body><segment><metadata><OBJECT_NAME>ORBCOMM FM34 [-]</OBJECT_NAME><OBJECT_ID>1999-065G</OBJECT_ID><CENTER_NAME>EARTH</CENTER_NAME><REF_FRAME>TEME</REF_FRAME><TIME_SYSTEM>UTC</TIME_SYSTEM><MEAN_ELEMENT_THEORY>SGP4</MEAN_ELEMENT_THEORY></metadata><data><meanElements><EPOCH>2023-12-31T08:10:02.380512</EPOCH><MEAN_MOTION>14.34623941</MEAN_MOTION><ECCENTRICITY>.0004976</ECCENTRICITY><INCLINATION>45.0397</INCLINATION><RA_OF_ASC_NODE>96.9751</RA_OF_ASC_NODE><ARG_OF_PERICENTER>200.7664</ARG_OF_PERICENTER><MEAN_ANOMALY>159.2982</MEAN_ANOMALY></meanElements><tleParameters><EPHEMERIS_TYPE>0</EPHEMERIS_TYPE><CLASSIFICATION_TYPE>U</CLASSIFICATION_TYPE><NORAD_CAT_ID>25986</NORAD_CAT_ID><ELEMENT_SET_NO>999</ELEMENT_SET_NO><REV_AT_EPOCH>25817</REV_AT_EPOCH><BSTAR>.51323E-3</BSTAR><MEAN_MOTION_DOT>.1323E-4</MEAN_MOTION_DOT><MEAN_MOTION_DDOT>0</MEAN_MOTION_DDOT></tleParameters></data></segment></body></omm>
<omm id="CCSDS_OMM_VERS" version="2.0">
<header><CREATION_DATE/><ORIGINATOR/></header><body><segment><metadata><OBJECT_NAME>ORBCOMM FM38 [-]</OBJECT_NAME><OBJECT_ID>2008-031A</OBJECT_ID><CENTER_NAME>EARTH</CENTER_NAME><REF_FRAME>TEME</REF_FRAME><TIME_SYSTEM>UTC</TIME_SYSTEM><MEAN_ELEMENT_THEORY>SGP4</MEAN_ELEMENT_THEORY></metadata><data><meanElements><EPOCH>2023-12-31T22:32:45.729024</EPOCH><MEAN_MOTION>14.76672057</MEAN_MOTION><ECCENTRICITY>.0005817</ECCENTRICITY><INCLINATION>48.4429</INCLINATION><RA_OF_ASC_NODE>326.8500</RA_OF_ASC_NODE><ARG_OF_PERICENTER>278.2668</ARG_OF_PERICENTER><MEAN_ANOMALY>81.7586</MEAN_ANOMALY></meanElements><tleParameters><EPHEMERIS_TYPE>0</EPHEMERIS_TYPE><CLASSIFICATION_TYPE>U</CLASSIFICATION_TYPE><NORAD_CAT_ID>33060</NORAD_CAT_ID><ELEMENT_SET_NO>999</ELEMENT_SET_NO><REV_AT_EPOCH>83582</REV_AT_EPOCH><BSTAR>.32616E-3</BSTAR><MEAN_MOTION_DOT>.2099E-4</MEAN_MOTION_DOT><MEAN_MOTION_DDOT>0</MEAN_MOTION_DDOT></tleParameters></data></segment></body></omm>
<omm id="CCSDS_OMM_VERS" version="2.0">
<header><CREATION_DATE/><ORIGINATOR/></header><body><segment><metadata><OBJECT_NAME>ORBCOMM FM41 [-]</OBJECT_NAME><OBJECT_ID>2008-031B</OBJECT_ID><CENTER_NAME>EARTH</CENTER_NAME><REF_FRAME>TEME</REF_FRAME><TIME_SYSTEM>UTC</TIME_SYSTEM><MEAN_ELEMENT_THEORY>SGP4</MEAN_ELEMENT_THEORY></metadata><data><meanElements><EPOCH>2023-12-31T07:28:54.906240</EPOCH><MEAN_MOTION>14.76415142</MEAN_MOTION><ECCENTRICITY>.0004955</ECCENTRICITY><INCLINATION>48.4462</INCLINATION><RA_OF_ASC_NODE>336.1394</RA_OF_ASC_NODE><ARG_OF_PERICENTER>262.6247</ARG_OF_PERICENTER><MEAN_ANOMALY>239.7282</MEAN_ANOMALY></meanElements><tleParameters><EPHEMERIS_TYPE>0</EPHEMERIS_TYPE><CLASSIFICATION_TYPE>U</CLASSIFICATION_TYPE><NORAD_CAT_ID>33061</NORAD_CAT_ID><ELEMENT_SET_NO>999</ELEMENT_SET_NO><REV_AT_EPOCH>83523</REV_AT_EPOCH><BSTAR>.32797E-3</BSTAR><MEAN_MOTION_DOT>.2098E-4</MEAN_MOTION_DOT><MEAN_MOTION_DDOT>0</MEAN_MOTION_DDOT></tleParameters></data></segment></body></omm>
<omm id="CCSDS_OMM_VERS" version="2.0">
<header><CREATION_DATE/><ORIGINATOR/></header><body><segment><metadata><OBJECT_NAME>ORBCOMM FM29 [-]</OBJECT_NAME><OBJECT_ID>2008-031C</OBJECT_ID><CENTER_NAME>EARTH</CENTER_NAME><REF_FRAME>TEME</REF_FRAME><TIME_SYSTEM>UTC</TIME_SYSTEM><MEAN_ELEMENT_THEORY>SGP4</MEAN_ELEMENT_THEORY></metadata><data><meanElements><EPOCH>2023-12-31T08:41:44.270880</EPOCH><MEAN_MOTION>14.76310985</MEAN_MOTION><ECCENTRICITY>.0006825</ECCENTRICITY><INCLINATION>48.4414</INCLINATION><RA_OF_ASC_NODE>343.9110</RA_OF_ASC_NODE><ARG_OF_PERICENTER>260.3634</ARG_OF_PERICENTER><MEAN_ANOMALY>252.4980</MEAN_ANOMALY></meanElements><tleParameters><EPHEMERIS_TYPE>0</EPHEMERIS_TYPE><CLASSIFICATION_TYPE>U</CLASSIFICATION_TYPE><NORAD_CAT_ID>33062</NORAD_CAT_ID><ELEMENT_SET_NO>999</ELEMENT_SET_NO><REV_AT_EPOCH>83515</REV_AT_EPOCH><BSTAR>.35438E-3</BSTAR><MEAN_MOTION_DOT>.2278E-4</MEAN_MOTION_DOT><MEAN_MOTION_DDOT>0</MEAN_MOTION_DDOT></tleParameters></data></segment></body></omm>
<omm id="CCSDS_OMM_VERS" version="2.0">
<header><CREATION_DATE/><ORIGINATOR/></header><body><segment><metadata><OBJECT_NAME>ORBCOMM FM39 [-]</OBJECT_NAME><OBJECT_ID>2008-031D</OBJECT_ID><CENTER_NAME>EARTH</CENTER_NAME><REF_FRAME>TEME</REF_FRAME><TIME_SYSTEM>UTC</TIME_SYSTEM><MEAN_ELEMENT_THEORY>SGP4</MEAN_ELEMENT_THEORY></metadata><data><meanElements><EPOCH>2023-12-31T05:10:16.794624</EPOCH><MEAN_MOTION>14.75417815</MEAN_MOTION><ECCENTRICITY>.000766</ECCENTRICITY><INCLINATION>48.4424</INCLINATION><RA_OF_ASC_NODE>4.1879</RA_OF_ASC_NODE><ARG_OF_PERICENTER>237.3617</ARG_OF_PERICENTER><MEAN_ANOMALY>122.6557</MEAN_ANOMALY></meanElements><tleParameters><EPHEMERIS_TYPE>0</EPHEMERIS_TYPE><CLASSIFICATION_TYPE>U</CLASSIFICATION_TYPE><NORAD_CAT_ID>33063</NORAD_CAT_ID><ELEMENT_SET_NO>999</ELEMENT_SET_NO><REV_AT_EPOCH>83484</REV_AT_EPOCH><BSTAR>.31555E-3</BSTAR><MEAN_MOTION_DOT>.1962E-4</MEAN_MOTION_DOT><MEAN_MOTION_DDOT>0</MEAN_MOTION_DDOT></tleParameters></data></segment></body></omm>

</ndm>
